NORAD_CAT_ID,OBJECT_NAME,OBJECT_TYPE,EPOCH,MEAN_MOTION,ECCENTRICITY,INCLINATION,RA_OF_ASC_NODE,ARG_OF_PERICENTER,MEAN_ANOMALY,BSTAR,MEAN_MOTION_DOT,MEAN_MOTION_DDOT,TLE_LINE0,TLE_LINE1,TLE_LINE2,SEMIMAJOR_AXIS,PERIOD,APOGEE,PERIGEE,DECAYED
53925.0,STARLINK-5011,PAYLOAD,2023-01-19 11:38:21,15.08889228,0.0001585999999999,53.2157,54.7349,81.9548,278.1624,0.0012975999999999,0.00020451,0.0,0 STARLINK-5011,1 53925U 22119AR  23019.48497192  .00020451  00000-0  12976-2 0  9997,2 53925  53.2157  54.7349 0001586  81.9548 278.1624 15.08889228 18949,6917.73,95.434,540.692,538.498,0.0
53925.0,STARLINK-5011,PAYLOAD,2023-01-19 19:35:17,15.0886745,0.0001322,53.2165,53.2486,92.8078,267.3065,0.0013342,0.00021025,0.0,0 STARLINK-5011,1 53925U 22119AR  23019.81617372  .00021025  00000-0  13342-2 0  9994,2 53925  53.2165  53.2486 0001322  92.8078 267.3065 15.08867450 18572,6917.795999999999,95.436,540.576,538.747,0.0
53925.0,STARLINK-5011,PAYLOAD,2023-01-20 01:56:50,15.08838392,0.0001479,53.2164,52.0588,98.9116,261.2043,-0.00010609,-1.976e-05,0.0,0 STARLINK-5011,1 53925U 22119AR  23020.08113541 -.00001976  00000-0 -10609-3 0  9993,2 53925  53.2164  52.0588 0001479  98.9116 261.2043 15.08838392 18611,6917.885,95.438,540.773,538.727,0.0
53925.0,STARLINK-5011,PAYLOAD,2023-01-20 11:29:09,15.08842535,0.0001602,53.2166,50.2747,100.0946,260.0227,0.0018975,0.00030042,0.0,0 STARLINK-5011,1 53925U 22119AR  23020.47858001  .00030042  00000-0  18975-2 0  9990,2 53925  53.2166  50.2747 0001602 100.0946 260.0227 15.08842535 19092,6917.8730000000005,95.437,540.846,538.629,0.0
53925.0,STARLINK-5011,PAYLOAD,2023-01-21 08:09:10,15.08849407,0.0001744,53.2167,46.4097,91.7636,268.3556,0.0016195,0.00025587,0.0,0 STARLINK-5011,1 53925U 22119AR  23021.33970667  .00025587  00000-0  16195-2 0  9999,2 53925  53.2167  46.4097 0001744  91.7636 268.3556 15.08849407 18806,6917.852,95.437,540.923,538.51,0.0
53925.0,STARLINK-5011,PAYLOAD,2023-01-22 11:10:43,15.08857692,0.0001325,53.2157,41.3519,89.3994,270.715,0.00073812,0.00011484,0.0,0 STARLINK-5011,1 53925U 22119AR  23022.46578305  .00011484  00000-0  73812-3 0  9998,2 53925  53.2157  41.3519 0001325  89.3994 270.7150 15.08857692 18973,6917.826,95.436,540.6080000000001,538.775,0.0
53925.0,STARLINK-5011,PAYLOAD,2023-01-23 01:29:11,15.08850157,0.0001226,53.2181,38.6774,94.64,265.4732,0.00032845,4.945e-05,0.0,0 STARLINK-5011,1 53925U 22119AR  23023.06194019  .00004945  00000-0  32845-3 0  9996,2 53925  53.2181  38.6774 0001226  94.6400 265.4732 15.08850157 19060,6917.849,95.437,540.562,538.866,0.0
53925.0,STARLINK-5011,PAYLOAD,2023-01-23 07:50:43,15.08865395,0.0001581,53.2176,37.4881,102.982,257.1349,0.001065,0.00016714,0.0,0 STARLINK-5011,1 53925U 22119AR  23023.32689576  .00016714  00000-0  10650-2 0  9998,2 53925  53.2176  37.4881 0001581 102.9820 257.1349 15.08865395 19100,6917.803000000001,95.436,540.761,538.5740000000001,0.0
53925.0,STARLINK-5011,PAYLOAD,2023-01-23 17:23:02,15.08859529,5.539999999999999e-05,53.2176,35.7016,57.4464,302.6582,0.00058587,9.054e-05,0.0,0 STARLINK-5011,1 53925U 22119AR  23023.72433151  .00009054  00000-0  58587-3 0  9999,2 53925  53.2176  35.7016 0000554  57.4464 302.6582 15.08859529 19161,6917.821,95.436,540.069,539.302,0.0
53925.0,STARLINK-5011,PAYLOAD,2023-01-24 01:19:59,15.08780463,0.0001396999999999,53.217,34.216,92.5256,267.5896,-0.0016055,-0.00025707,0.0,0 STARLINK-5011,1 53925U 22119AR  23024.05555339 -.00025707  00000-0 -16055-2 0  9997,2 53925  53.2170  34.2160 0001397  92.5256 267.5896 15.08780463 19217,6918.062,95.441,540.894,538.961,0.0
53925.0,STARLINK-5011,PAYLOAD,2023-01-24 09:16:56,15.088165900000002,0.0001403,53.2173,32.729,85.309,274.8062,7.5842e-05,9.19e-06,0.0,0 STARLINK-5011,1 53925U 22119AR  23024.38675955  .00000919  00000-0  75842-4 0  9997,2 53925  53.2173  32.7290 0001403  85.3090 274.8062 15.08816590 19263,6917.951999999999,95.439,540.788,538.846,0.0
53925.0,STARLINK-5011,PAYLOAD,2023-01-25 01:10:47,15.08836565,0.0001164,53.2166,29.7565,85.7888,274.3237,0.0009318,0.00014571,0.0,0 STARLINK-5011,1 53925U 22119AR  23025.04916360  .00014571  00000-0  93180-3 0  9992,2 53925  53.2166  29.7565 0001164  85.7888 274.3237 15.08836565 19363,6917.891,95.438,540.561,538.951,0.0
53925.0,STARLINK-5011,PAYLOAD,2023-01-25 07:32:20,15.08869033,0.0001269,53.2173,28.5669,88.3432,271.7706,0.0013602,0.00021443,0.0,0 STARLINK-5011,1 53925U 22119AR  23025.31412043  .00021443  00000-0  13602-2 0  9997,2 53925  53.2173  28.5669 0001269  88.3432 271.7706 15.08869033 19406,6917.792,95.436,540.535,538.779,0.0
53925.0,STARLINK-5011,PAYLOAD,2023-01-25 17:04:38,15.08868803,0.0001541,53.2173,26.7822,94.0774,266.0395,0.00089172,0.00013943,0.0,0 STARLINK-5011,1 53925U 22119AR  23025.71155705  .00013943  00000-0  89172-3 0  9992,2 53925  53.2173  26.7822 0001541  94.0774 266.0395 15.08868803 19464,6917.792,95.436,540.7230000000001,538.591,0.0
53925.0,STARLINK-5011,PAYLOAD,2023-01-26 01:01:34,15.08855447,0.0001371,53.2176,25.2972,110.3853,249.7287,0.00098366,0.00015408,0.0,0 STARLINK-5011,1 53925U 22119AR  23026.04275489  .00015408  00000-0  98366-3 0  9994,2 53925  53.2176  25.2972 0001371 110.3853 249.7287 15.08855447 19512,6917.8330000000005,95.437,540.6469999999999,538.75,0.0
53925.0,STARLINK-5011,PAYLOAD,2023-01-26 08:58:29,15.08868806,0.0001591,53.2175,23.8081,96.99,263.1273,0.0016619,0.00026281,0.0,0 STARLINK-5011,1 53925U 22119AR  23026.37395047  .00026281  00000-0  16619-2 0  9994,2 53925  53.2175  23.8081 0001591  96.9900 263.1273 15.08868806 19981,6917.792,95.436,540.758,538.557,0.0
53925.0,STARLINK-5011,PAYLOAD,2023-01-26 20:06:11,15.08853134,0.0001378,53.2176,21.7259,118.9169,241.1961,0.0013599,0.00021429,0.0,0 STARLINK-5011,1 53925U 22119AR  23026.83763064  .00021429  00000-0  13599-2 0  9996,2 53925  53.2176  21.7259 0001378 118.9169 241.1961 15.08853134 19631,6917.84,95.437,540.659,538.752,0.0
53925.0,STARLINK-5011,PAYLOAD,2023-01-27 08:49:16,15.08845945,0.0001581,53.2168,19.3494,105.1766,254.9401,0.0008431,0.00013158,0.0,0 STARLINK-5011,1 53925U 22119AR  23027.36755166  .00013158  00000-0  84310-3 0  9999,2 53925  53.2168  19.3494 0001581 105.1766 254.9401 15.08845945 19714,6917.861999999999,95.437,540.821,538.634,0.0
53925.0,STARLINK-5011,PAYLOAD,2023-01-28 08:40:03,15.08843559,0.0001651,53.2179,14.8865,112.8166,247.3,0.00063978,9.91e-05,0.0,0 STARLINK-5011,1 53925U 22119AR  23028.36115627  .00009910  00000-0  63978-3 0  9990,2 53925  53.2179  14.8865 0001651 112.8166 247.3000 15.08843559 19861,6917.87,95.437,540.877,538.592,0.0
53925.0,STARLINK-5011,PAYLOAD,2023-01-29 02:09:18,15.08844673,0.0001618,53.2173,11.6155,109.352,250.7647,0.0004031,6.134e-05,0.0,0 STARLINK-5011,1 53925U 22119AR  23029.08979674  .00006134  00000-0  40310-3 0  9990,2 53925  53.2173  11.6155 0001618 109.3520 250.7647 15.08844673 19975,6917.866,95.437,540.85,538.612,0.0
53925.0,STARLINK-5011,PAYLOAD,2023-01-29 08:30:50,15.08850523,0.0001464,53.2179,10.4273,102.2321,257.8835,0.00063495,9.835e-05,0.0,0 STARLINK-5011,1 53925U 22119AR  23029.35475463  .00009835  00000-0  63495-3 0  9997,2 53925  53.2179  10.4273 0001464 102.2321 257.8835 15.08850523 20430,6917.848,95.437,540.726,538.7,0.0
53925.0,STARLINK-5011,PAYLOAD,2023-01-30 05:10:51,15.08843667,0.0001382,53.2177,6.5612,94.1766,265.9384,0.00016693,2.37e-05,0.0,0 STARLINK-5011,1 53925U 22119AR  23030.21587695  .00002370  00000-0  16693-3 0  9990,2 53925  53.2177   6.5612 0001382  94.1766 265.9384 15.08843667 20140,6917.869,95.437,540.69,538.778,0.0
53925.0,STARLINK-5011,PAYLOAD,2023-01-30 06:46:14,15.08844994,0.0001456,53.2183,6.2634,94.4952,265.6206,0.00018373,2.638e-05,0.0,0 STARLINK-5011,1 53925U 22119AR  23030.28211632  .00002638  00000-0  18373-3 0  9996,2 53925  53.2183   6.2634 0001456  94.4952 265.6206 15.08844994 20571,6917.865,95.437,540.737,538.723,0.0
53925.0,STARLINK-5011,PAYLOAD,2023-01-30 22:40:06,15.08843785,0.0001484,53.2191,3.292,92.1735,267.9427,6.8992e-05,8.1e-06,0.0,0 STARLINK-5011,1 53925U 22119AR  23030.94451649  .00000810  00000-0  68992-4 0  9996,2 53925  53.2191   3.2920 0001484  92.1735 267.9427 15.08843785 20678,6917.869,95.437,540.76,538.707,0.0
53925.0,STARLINK-5011,PAYLOAD,2023-01-31 06:37:01,15.08850741,0.0001486,53.219,1.8061,93.8342,266.282,0.0002297,3.371e-05,0.0,0 STARLINK-5011,1 53925U 22119AR  23031.27571336  .00003371  00000-0  22970-3 0  9999,2 53925  53.2190   1.8061 0001486  93.8342 266.2820 15.08850741 20300,6917.848,95.437,540.741,538.685,0.0
53925.0,STARLINK-5011,PAYLOAD,2023-01-31 20:55:30,15.08843167,0.0001533,53.2194,359.131,95.0894,265.0273,0.0001015,1.328e-05,0.0,0 STARLINK-5011,1 53925U 22119AR  23031.87187551  .00001328  00000-0  10150-3 0  9994,2 53925  53.2194 359.1310 0001533  95.0894 265.0273 15.08843167 20818,6917.871,95.437,540.796,538.675,0.0
53925.0,STARLINK-5011,PAYLOAD,2023-02-01 04:52:25,15.0884719,0.0001523,53.2194,357.6443,95.527,264.5896,0.00014779,2.065e-05,0.0,0 STARLINK-5011,1 53925U 22119AR  23032.20307283  .00002065  00000-0  14779-3 0  9998,2 53925  53.2194 357.6443 0001523  95.5270 264.5896 15.08847190 20444,6917.858,95.437,540.777,538.67,0.0
53925.0,STARLINK-5011,PAYLOAD,2023-02-01 06:27:48,15.08846994,0.0001498,53.2191,357.3471,95.7684,264.3479,0.00014463,2.015e-05,0.0,0 STARLINK-5011,1 53925U 22119AR  23032.26931284  .00002015  00000-0  14463-3 0  9993,2 53925  53.2191 357.3471 0001498  95.7684 264.3479 15.08846994 20874,6917.859,95.437,540.76,538.688,0.0
53925.0,STARLINK-5011,PAYLOAD,2023-02-02 03:07:49,15.08842111,0.0001426,53.2193,353.4808,93.1882,266.9273,3.032e-05,1.95e-06,0.0,0 STARLINK-5011,1 53925U 22119AR  23033.13043605  .00000195  00000-0  30320-4 0  9999,2 53925  53.2193 353.4808 0001426  93.1882 266.9273 15.08842111 20585,6917.874,95.437,540.725,538.752,0.0
